PERSEUS-M1              
1 40039U 14033AF  26186.30022360  .00001874  00000+0  17369-3 0  9994
2 40039  97.9646 130.7305 0010323 233.3815 126.6456 14.95693117653349
POLYITAN-1              
1 40042U 14033AJ  26186.06105418  .00032793  00000+0  99713-3 0  9994
2 40042  98.0935 214.0203 0008541  92.3372 267.8847 15.33942082656334
TIGRISAT                
1 40043U 14033AK  26186.30639996  .00002350  00000+0  27445-3 0  9994
2 40043  97.7854 335.9053 0049510  16.8311 343.4533 14.85230424648310
AEROCUBE 6A             
1 40045U 14033AM  26185.98975726  .00008427  00000+0  70314-3 0  9997
2 40045  97.7236 352.7515 0037502 315.9923  43.8316 14.98273563649288
AEROCUBE 6B             
1 40046U 14033AN  26185.97474663  .00008500  00000+0  68262-3 0  9992
2 40046  97.7221 352.5659 0037778 306.4248  53.3494 14.99735094649422
CANX-4                  
1 40055U 14034C   26186.18769495  .00001347  00000+0  17983-3 0  9993
2 40055  98.3098  62.1598 0011866 318.1747  41.8557 14.81300141647197
CANX-5                  
1 40056U 14034D   26186.25346629  .00001352  00000+0  18042-3 0  9995
2 40056  98.3101  62.2726 0011850 318.1941  41.8364 14.81317660638017
UKUBE-1                 
1 40074U 14037F   26185.95047171  .00014502  00000+0  80554-3 0  9992
2 40074  98.4244 191.0920 0003276 104.6577 255.5016 15.13840631651242
BRITE-PL2 (HEWELIUSZ)   
1 40119U 14049B   26186.31517076  .00003014  00000+0  28293-3 0  9990
2 40119  97.9110 298.4567 0014937  53.6475 306.6121 14.94662781644156
AEROCUBE 5C             
1 40965U 15058B   26186.47581249  .00003542  00000+0  31327-3 0  9998
2 40965  64.7654 205.6916 0131702  56.1518 305.2047 14.91536447368380
AEROCUBE 7              
1 40966U 15058C   26186.41972224  .00006549  00000+0  51694-3 0  9999
2 40966  64.7608 187.7019 0121376  54.5174 306.7194 14.95851481368684
FOX-1A (AO-85)          
1 40967U 15058D   26186.52933388  .00003388  00000+0  30429-3 0  9991
2 40967  64.7733 221.9785 0131618  49.4839 311.7650 14.91052495116303
SINOD-D 1               
1 40968U 15058E   26186.46234314  .00005755  00000+0  45516-3 0  9991
2 40968  64.7734 201.6767 0120272  45.8938 315.1996 14.96026734119399
SNAP-3 ALICE            
1 40970U 15058G   26186.03310873  .00205794  00000+0  20116-2 0  9995
2 40970  64.7494  42.0388 0023438 357.0184   3.0820 15.64924295119673
LMRST-SAT               
1 40971U 15058H   26186.48934224  .00003259  00000+0  29509-3 0  9995
2 40971  64.7739 218.4755 0133171  51.5096 309.7871 14.90668217116280
SNAP-3 EDDIE            
1 40972U 15058J   26186.00916353  .00227130  00000+0  21016-2 0  9997
2 40972  64.7406  32.7134 0024180 359.7693   0.3440 15.66206085121811
PROPCUBE 3              
1 40973U 15058K   26186.41295762  .00005502  00000+0  45048-3 0  9996
2 40973  64.7668 195.5868 0125048  52.7731 308.4714 14.94364236117524
BISONSAT                
1 40974U 15058L   26186.16919799  .00025840  00000+0  12111-2 0  9993
2 40974  64.7583 115.4853 0081006  40.0718 320.6344 15.16720680118346
SNAP-3 JIMI             
1 40975U 15058M   26186.09522065  .00011099  00000+0  74618-3 0  9994
2 40975  64.7642 163.1040 0107123  48.2598 312.7618 15.02505471116917
PROPCUBE 1 (FLORA)      
1 40976U 15058N   26186.32676851  .00003169  00000+0  29889-3 0  9993
2 40976  64.7733 239.0141 0131796  53.8605 307.4618 14.89299812118969
SINOD-D 3               
1 40977U 15058P   26186.31367716  .00005276  00000+0  44030-3 0  9996
2 40977  64.7707 219.2116 0120343  50.9538 310.2211 14.94125194117464
RAVAN                   
1 41849U 16067B   26186.24842125  .00085528  00000+0  11921-2 0  9990
2 41849  97.9847  77.9290 0001582 299.1439  60.9656 15.56628438530502
CELTEE 1                
1 41850U 16067C   26186.57670543  .00008163  00000+0  38378-3 0  9997
2 41850  98.0647  54.3974 0001951 122.2519 237.8904 15.19875605528672
OPTICUBE 04             
1 41851U 16067D   26186.17355226  .00003089  00000+0  19531-3 0  9994
2 41851  98.0685  39.3947 0016864  59.8826 300.4071 15.09743515527880
AEROCUBE 8D             
1 41852U 16067E   26186.59923226  .00011194  00000+0  45580-3 0  9991
2 41852  98.0654  58.1713 0004945  80.0519 280.1274 15.24674604528877
AEROCUBE 8C             
1 41853U 16067F   26186.16185298  .00013497  00000+0  54470-3 0  9990
2 41853  98.0529  54.9052 0005323  17.0793 343.0621 15.24922113528803
CORVUS BC2              
1 42846U 17042X   26186.39599478  .00005819  00000+0  39790-3 0  9998
2 42846  97.4086 347.0401 0013953  53.8064 306.4451 15.06417428489806
CORVUS BC1              
1 42847U 17042Y   26185.99008769  .00005510  00000+0  37552-3 0  9994
2 42847  97.4124 347.4755 0012500  33.9009 326.3015 15.06581528489777
MAKERSAT 0              
1 43016U 17073D   26185.74584820  .00032255  00000+0  85667-3 0  9993
2 43016  97.4599  68.4054 0104886 209.6010 149.9270 15.32706077469156
SIRION PATHFINDER-2     
1 43759U 18099B   26186.08537637  .00008745  00000+0  47509-3 0  9998
2 43759  97.4238 234.7180 0007590 229.6559 130.4011 15.14715504415336
