OBJECT_NAME,OBJECT_ID,EPOCH,MEAN_MOTION,ECCENTRICITY,INCLINATION,RA_OF_ASC_NODE,ARG_OF_PERICENTER,MEAN_ANOMALY,EPHEMERIS_TYPE,CLASSIFICATION_TYPE,NORAD_CAT_ID,ELEMENT_SET_NO,REV_AT_EPOCH,BSTAR,MEAN_MOTION_DOT,MEAN_MOTION_DDOT
PERSEUS-M1,2014-033AF,2026-07-05T07:12:19.319040,14.95693117,.00103235,97.9646,130.7305,233.3815,126.6456,0,U,40039,999,65334,.17368996E-3,.1874E-4,0
POLYITAN-1,2014-033AJ,2026-07-05T01:27:55.081152,15.33942082,.0008541,98.0935,214.0203,92.3372,267.8847,0,U,40042,999,65633,.9971289E-3,.32793E-3,0
TIGRISAT,2014-033AK,2026-07-05T07:21:12.956544,14.85230424,.00495101,97.7854,335.9053,16.8311,343.4533,0,U,40043,999,64831,.27444715E-3,.235E-4,0
AEROCUBE 6A,2014-033AM,2026-07-04T23:45:15.027264,14.98273563,.00375026,97.7236,352.7515,315.9923,43.8316,0,U,40045,999,64928,.70313573E-3,.8427E-4,0
AEROCUBE 6B,2014-033AN,2026-07-04T23:23:38.108832,14.99735094,.00377785,97.7221,352.5659,306.4248,53.3494,0,U,40046,999,64942,.68261977E-3,.85E-4,0
CANX-4,2014-034C,2026-07-05T04:30:16.843680,14.81300141,.00118667,98.3098,62.1598,318.1747,41.8557,0,U,40055,999,64719,.1798317E-3,.1347E-4,0
CANX-5,2014-034D,2026-07-05T06:04:59.487456,14.81317660,.00118503,98.3101,62.2726,318.1941,41.8364,0,U,40056,999,63801,.18042225E-3,.1352E-4,0
UKUBE-1,2014-037F,2026-07-04T22:48:40.755744,15.13840631,.00032765,98.4244,191.0920,104.6577,255.5016,0,U,40074,999,65124,.8055371E-3,.14502E-3,0
BRITE-PL2 (HEWELIUSZ),2014-049B,2026-07-05T07:33:50.753664,14.94662781,.00149372,97.9110,298.4567,53.6475,306.6121,0,U,40119,999,64415,.28292651E-3,.3014E-4,0
AEROCUBE 5C,2015-058B,2026-07-05T11:25:10.199136,14.91536447,.01317026,64.7654,205.6916,56.1518,305.2047,0,U,40965,999,36838,.31327397E-3,.3542E-4,0
AEROCUBE 7,2015-058C,2026-07-05T10:04:24.001536,14.95851481,.01213768,64.7608,187.7019,54.5174,306.7194,0,U,40966,999,36868,.51693937E-3,.6549E-4,0
FOX-1A (AO-85),2015-058D,2026-07-05T12:42:14.447232,14.91052495,.01316189,64.7733,221.9785,49.4839,311.7650,0,U,40967,999,11630,.30428574E-3,.3388E-4,0
SINOD-D 1,2015-058E,2026-07-05T11:05:46.447296,14.96026734,.01202727,64.7734,201.6767,45.8938,315.1996,0,U,40968,999,11939,.45515977E-3,.5755E-4,0
SNAP-3 ALICE,2015-058G,2026-07-05T00:47:40.594272,15.64924295,.00234386,64.7494,42.0388,357.0184,3.0820,0,U,40970,999,11967,.20116202E-2,.205794E-2,0
LMRST-SAT,2015-058H,2026-07-05T11:44:39.169536,14.90668217,.01331712,64.7739,218.4755,51.5096,309.7871,0,U,40971,999,11628,.29509368E-3,.3259E-4,0
SNAP-3 EDDIE,2015-058J,2026-07-05T00:13:11.728992,15.66206085,.00241806,64.7406,32.7134,359.7693,0.3440,0,U,40972,999,12181,.21016198E-2,.22713E-2,0
PROPCUBE 3,2015-058K,2026-07-05T09:54:39.538368,14.94364236,.01250485,64.7668,195.5868,52.7731,308.4714,0,U,40973,999,11752,.45047963E-3,.5502E-4,0
BISONSAT,2015-058L,2026-07-05T04:03:38.706336,15.16720680,.00810062,64.7583,115.4853,40.0718,320.6344,0,U,40974,999,11834,.12110722E-2,.2584E-3,0
SNAP-3 JIMI,2015-058M,2026-07-05T02:17:07.064160,15.02505471,.01071237,64.7642,163.1040,48.2598,312.7618,0,U,40975,999,11691,.74617884E-3,.11099E-3,0
PROPCUBE 1 (FLORA),2015-058N,2026-07-05T07:50:32.799264,14.89299812,.01317961,64.7733,239.0141,53.8605,307.4618,0,U,40976,999,11896,.29889011E-3,.3169E-4,0
SINOD-D 3,2015-058P,2026-07-05T07:31:41.706624,14.94125194,.01203438,64.7707,219.2116,50.9538,310.2211,0,U,40977,999,11746,.44030483E-3,.5276E-4,0
RAVAN,2016-067B,2026-07-05T05:57:43.596000,15.56628438,.00015828,97.9847,77.9290,299.1439,60.9656,0,U,41849,999,53050,.11921172E-2,.85528E-3,0
CELTEE 1,2016-067C,2026-07-05T13:50:27.349152,15.19875605,.0001951,98.0647,54.3974,122.2519,237.8904,0,U,41850,999,52867,.38378429E-3,.8163E-4,0
OPTICUBE 04,2016-067D,2026-07-05T04:09:54.915264,15.09743515,.00168647,98.0685,39.3947,59.8826,300.4071,0,U,41851,999,52788,.19531161E-3,.3089E-4,0
AEROCUBE 8D,2016-067E,2026-07-05T14:22:53.667264,15.24674604,.00049452,98.0654,58.1713,80.0519,280.1274,0,U,41852,999,52887,.45580422E-3,.11194E-3,0
AEROCUBE 8C,2016-067F,2026-07-05T03:53:04.097472,15.24922113,.0005323,98.0529,54.9052,17.0793,343.0621,0,U,41853,999,52880,.54470326E-3,.13497E-3,0
CORVUS BC2,2017-042X,2026-07-05T09:30:13.948992,15.06417428,.00139539,97.4086,347.0401,53.8064,306.4451,0,U,42846,999,48980,.3979043E-3,.5819E-4,0
CORVUS BC1,2017-042Y,2026-07-04T23:45:43.576416,15.06581528,.00125003,97.4124,347.4755,33.9009,326.3015,0,U,42847,999,48977,.37551932E-3,.551E-4,0
MAKERSAT 0,2017-073D,2026-07-04T17:54:01.284480,15.32706077,.01048861,97.4599,68.4054,209.6010,149.9270,0,U,43016,999,46915,.85666587E-3,.32255E-3,0
SIRION PATHFINDER-2,2018-099B,2026-07-05T02:02:56.518368,15.14715504,.000759,97.4238,234.7180,229.6559,130.4011,0,U,43759,999,41533,.47509497E-3,.8745E-4,0
